BEIDOU-3 M28            
1 58654U 23207A   26155.94923242 -.00000042  00000+0  00000+0 0  9991
2 58654  55.7423  62.7161 0003601 342.0321  17.9818  1.86229823 16613
BEIDOU-3 M26            
1 58655U 23207B   26154.13584299 -.00000050  00000+0  00000+0 0  9996
2 58655  55.7428  62.7637 0003644 315.9700  44.0214  1.86229917 16563
GSAT0225 (GALILEO 29)   
1 59598U 24079A   26155.79982736  .00000015  00000+0  00000+0 0  9992
2 59598  55.1115 101.4267 0001889 291.2198 252.0440  1.70474236 13101
GSAT0227 (GALILEO 30)   
1 59600U 24079C   26155.09799679  .00000011  00000+0  00000+0 0  9997
2 59600  55.1072 101.4444 0001821  42.0743 317.8998  1.70474129 13141
GSAT0232 (GALILEO 32)   
1 61182U 24167A   26155.92171907  .00000042  00000+0  00000+0 0  9997
2 61182  55.1882 221.6507 0005876 224.3947 136.6836  1.70474561 10671
GSAT0226 (GALILEO 31)   
1 61183U 24167B   26155.87871670  .00000042  00000+0  00000+0 0  9996
2 61183  55.1868 221.6590 0002652 221.6464 204.3786  1.70474523 10643
BEIDOU-3 M25            
1 61186U 24168B   26155.83666087 -.00000058  00000+0  00000+0 0  9998
2 61186  54.4852 302.6721 0003063 306.3392 231.2716  1.86230297 11553
BEIDOU-3 M27            
1 61187U 24168C   26155.63721520 -.00000058  00000+0  00000+0 0  9991
2 61187  54.4808 302.6620 0001796  47.2296 131.6878  1.86230382  9024
NAVSTAR 83 (USA 440)    
1 62339U 24242A   26155.87622468 -.00000072  00000+0  00000+0 0  9997
2 62339  54.8548 334.6808 0017380   4.3372 355.2170  2.00571595 11008
QZS-6 (MICHIBIKI-6)     
1 62876U 25023A   26155.51167161 -.00000220  00000+0  00000+0 0  9991
2 62876   0.0204  28.4634 0002571  48.7616  90.3882  1.00268510  4828
COSMOS 2584 [GLONASS-K2]
1 63130U 25042A   26155.93958162 -.00000009  00000+0  00000+0 0  9996
2 63130  65.0776  73.2182 0005831 229.2014 130.7692  2.13103948  9789
NAVSTAR 84 (USA 545)    
1 64202U 25116A   26155.36633038 -.00000073  00000+0  00000+0 0  9999
2 64202  55.2259  31.6468 0008452 337.8257 196.1658  2.00577081  7616
COSMOS 2596 [GLONASS-K1]
1 65590U 25206B   26149.68459361 -.00000068  00000+0  00000+0 0  9997
2 65590  64.6467 315.6290 0011151 314.6394  43.2361  2.13100909  5510
GSAT0233 (GALILEO 33)   
1 67160U 25302A   26155.68420046  .00000015  00000+0  00000+0 0  9995
2 67160  54.3286 102.4877 0001349 235.7171 167.4266  1.70474377  2916
GSAT0234 (GALILEO 34)   
1 67162U 25302C   26154.85627277  .00000010  00000+0  00000+0 0  9995
2 67162  54.3286 102.5103 0003271 302.9496 132.1778  1.70474390  2950
NAVSTAR 85 (USA 581)    
1 67588U 26017A   26152.24333673 -.00000030  00000+0  00000+0 0  9999
2 67588  55.0787  89.3950 0022624 257.1779 102.5406  2.00571608431292
NAVSTAR 86 (USA 585)    
1 68791U 26087A   26155.45404907  .00000044  00000+0  00000+0 0  9992
2 68791  54.9640 208.2915 0020943 107.1704 256.5899  2.00569407   586
